GLOBALSTAR M057         
1 25943U 99058A   24139.94946589 -.00000048  00000+0  40916-3 0  9992
2 25943  52.0012  27.0082 0001634 293.4548  66.6130 12.24787958118626
GLOBALSTAR M056         
1 25945U 99058C   24139.94971087 -.00000086  00000+0  21842-4 0  9995
2 25945  51.9951 205.7800 0001147 128.9133  41.5524 12.04775657115102
GLOBALSTAR M031         
1 25946U 99058D   24139.93713623 -.00000012  00000+0  80135-3 0  9993
2 25946  51.9940 121.7347 0001430  87.1964 292.3190 12.16007961116584
GLOBALSTAR M039         
1 25961U 99062A   24139.84243068 -.00000048  00000+0  30900-3 0  9990
2 25961  51.9869  29.7776 0002394 178.0889 181.9987 12.62291522130414
GLOBALSTAR M034         
1 25962U 99062B   24139.88900597 -.00000029  00000+0  81834-3 0  9993
2 25962  51.9886 316.3176 0014040  20.1666 128.4565 11.79429714 91860
GLOBALSTAR M029         
1 25963U 99062C   24139.81566486 -.00000055  00000+0  38647-3 0  9995
2 25963  51.9805  82.4300 0002985  58.6195 316.8006 11.99878188121783
